OBJECT_NAME,OBJECT_ID,EPOCH,MEAN_MOTION,ECCENTRICITY,INCLINATION,RA_OF_ASC_NODE,ARG_OF_PERICENTER,MEAN_ANOMALY,EPHEMERIS_TYPE,CLASSIFICATION_TYPE,NORAD_CAT_ID,ELEMENT_SET_NO,REV_AT_EPOCH,BSTAR,MEAN_MOTION_DOT,MEAN_MOTION_DDOT
ONEWEB-0130,2020-100U,2026-07-23T15:08:58.965792,13.12442196,.0001891,87.8990,343.4097,97.7991,262.3352,0,U,47276,999,26942,-.4594E-3,-.153E-5,0
ONEWEB-0131,2020-100V,2026-07-23T20:33:27.406944,13.12442047,.0001854,87.8972,343.3786,98.7344,261.3995,0,U,47277,999,26949,.98553E-4,.48E-6,0
ONEWEB-0132,2020-100W,2026-07-23T19:25:07.944672,13.12443943,.0001842,87.8975,343.3909,99.7305,260.4031,0,U,47278,999,26938,-.6877E-3,-.235E-5,0
ONEWEB-0133,2020-100X,2026-07-23T19:49:19.199424,13.12444856,.0001875,87.8986,343.3677,102.0153,258.1186,0,U,47279,999,26954,.65588E-3,.249E-5,0
ONEWEB-0134,2020-100Y,2026-07-23T08:06:55.711584,13.12442815,.0002112,87.8985,343.4612,100.6852,259.4514,0,U,47280,999,26945,-.11859E-2,-.414E-5,0
ONEWEB-0135,2020-100Z,2026-07-23T14:44:35.001600,13.12442708,.0002064,87.8978,343.4256,102.7299,257.4060,0,U,47281,999,26951,.11195E-2,.415E-5,0
ONEWEB-0136,2020-100AA,2026-07-23T20:40:45.587136,13.12442479,.0002126,87.8985,343.3607,98.8218,261.3151,0,U,47282,999,26947,-.34268E-3,-.111E-5,0
ONEWEB-0137,2020-100AB,2026-07-23T19:39:45.849024,13.12444811,.0001789,87.8989,343.3807,94.3714,265.7619,0,U,47283,999,26937,.1319E-3,.6E-6,0
ONEWEB-0138,2020-100AC,2026-07-23T19:08:03.441984,13.12442926,.0002058,87.8983,343.3884,98.1869,261.9493,0,U,47284,999,26945,-.11348E-2,-.396E-5,0
ONEWEB-0139,2020-100AD,2026-07-23T20:06:49.928832,13.12442590,.0001875,87.8993,343.3682,92.4816,267.6527,0,U,47285,999,26953,.11622E-2,.431E-5,0
ONEWEB-0140,2020-100AE,2026-07-23T08:02:02.882112,13.12442436,.0001801,87.8985,343.4582,102.8579,257.2751,0,U,47286,999,26943,-.10906E-2,-.38E-5,0
ONEWEB-0141,2020-100AF,2026-07-23T09:07:43.046112,13.12443102,.0001726,87.8984,343.4540,87.9346,272.1980,0,U,47287,999,26942,.11361E-2,.421E-5,0
ONEWEB-0142,2020-100AG,2026-07-23T19:49:43.406112,13.12445455,.0002052,87.8980,343.3848,86.3898,273.7465,0,U,47288,999,26947,.70587E-3,.267E-5,0
ONEWEB-0143,2020-100AH,2026-07-23T20:04:10.322976,13.12443626,.0001819,87.8977,343.3825,96.8685,263.2650,0,U,47289,999,26945,.12461E-2,.461E-5,0
ONEWEB-0144,2020-100AJ,2026-07-23T19:22:41.896704,13.12443627,.0002218,87.8987,343.3648,94.6561,265.4821,0,U,47290,999,26937,-.85045E-3,-.293E-5,0
ONEWEB-0145,2020-100AK,2026-07-23T15:01:39.628704,13.12442283,.0001922,87.8979,343.4247,95.8476,264.2872,0,U,47291,999,26954,.69089E-4,.38E-6,0
ONEWEB-0146,2020-100AL,2026-07-23T07:37:39.468288,13.12442524,.0001619,87.8975,343.4792,102.6777,257.4533,0,U,47292,999,26941,.11727E-4,.17E-6,0
ONEWEB-0147,2020-100AM,2026-07-23T19:37:19.828704,13.12444385,.0001958,87.8991,343.3635,101.0652,259.0697,0,U,47293,999,26937,.55763E-4,.33E-6,0
ONEWEB-0115,2021-025A,2026-07-23T17:47:01.559328,13.13472502,.0001904,87.8988,312.9514,102.2317,257.9025,0,U,48042,999,25839,.49479E-3,.193E-5,0
ONEWEB-0152,2021-025B,2026-07-23T18:06:27.655200,13.13470511,.0001918,87.8989,312.9476,103.3520,256.7823,0,U,48043,999,25835,.10778E-4,.17E-6,0
ONEWEB-0153,2021-025C,2026-07-23T13:55:24.031200,13.13470943,.0001996,87.8979,312.9819,98.0530,262.0825,0,U,48044,999,25832,.91989E-4,.46E-6,0
ONEWEB-0154,2021-025D,2026-07-23T13:50:31.346880,13.13471244,.0002064,87.8987,312.9823,104.8393,255.2964,0,U,48045,999,25828,-.14793E-3,-.41E-6,0
ONEWEB-0116,2021-025E,2026-07-23T12:56:53.662272,13.13469968,.0001902,87.8994,312.9875,103.6823,256.4518,0,U,48046,999,25842,.27945E-3,.115E-5,0
ONEWEB-0150,2021-025F,2026-07-23T06:53:41.544096,13.13470277,.00019,87.8988,313.0352,97.6631,262.4714,0,U,48047,999,25828,.80054E-3,.305E-5,0
ONEWEB-0107,2021-025G,2026-07-23T17:54:17.095680,13.13471055,.0002048,87.8994,312.9397,96.5144,263.6218,0,U,48048,999,25832,.16989E-3,.75E-6,0
ONEWEB-0101,2021-025H,2026-07-23T13:21:15.577056,13.13471547,.0002109,87.8980,312.9893,100.9415,259.1951,0,U,48049,999,25827,-.69427E-3,-.241E-5,0
ONEWEB-0113,2021-025J,2026-07-23T17:18:51.113088,13.13890903,.0001849,87.8981,312.8629,96.4574,263.6766,0,U,48050,999,25840,-.61717E-3,-.214E-5,0
ONEWEB-0112,2021-025K,2026-07-23T18:01:37.116192,13.13469661,.000231,87.8986,312.9363,100.8043,259.3347,0,U,48051,999,25839,.69051E-3,.265E-5,0
ONEWEB-0156,2021-025L,2026-07-23T07:15:36.495936,13.13468377,.0001976,87.8989,313.0357,95.8026,264.3328,0,U,48052,999,25831,.77699E-3,.296E-5,0
ONEWEB-0161,2021-025M,2026-07-23T17:37:12.383904,13.13474378,.0002035,87.8990,312.9506,94.3231,265.8131,0,U,48053,999,25830,.16356E-3,.72E-6,0
